IRIDIUM 159             
1 43578U 18061K   24084.37970160  .00000039  00000+0  68805-5 0  9997
2 43578  86.3992  37.2082 0002074  84.8736 275.2697 14.34218042296595
IRIDIUM 180             
1 43922U 19002A   24084.44896334  .00000530  00000+0  18207-3 0  9999
2 43922  86.4001 334.1056 0002054  84.9051 275.2379 14.34221705272219
IRIDIUM 176             
1 43923U 19002B   24084.63394251  .00003336  00000+0  52521-3 0  9996
2 43923  86.6132 334.0560 0002300  92.7934 267.3547 14.72232788279409
IRIDIUM 168             
1 43924U 19002C   24084.44262268  .00000148  00000+0  45627-4 0  9996
2 43924  86.4004 334.1625 0002105  85.1978 274.9458 14.34218126272198
IRIDIUM 173             
1 43925U 19002D   24084.42993682  .00000509  00000+0  17481-3 0  9993
2 43925  86.4001 334.0892 0002000  87.2528 272.8897 14.34218982272171
IRIDIUM 169             
1 43926U 19002E   24084.47591049  .00001264  00000+0  40656-3 0  9999
2 43926  86.4288   5.6613 0003894 118.3826 241.7766 14.38620441273093
IRIDIUM 172             
1 43927U 19002F   24084.42358760  .00000664  00000+0  23017-3 0  9991
2 43927  86.4001 334.0980 0002103  84.1690 275.9745 14.34224158272180
IRIDIUM 175             
1 43928U 19002G   24084.62814272  .00003452  00000+0  54355-3 0  9996
2 43928  86.1499 311.9822 0002339  87.8502 272.2982 14.72234622279393
